[{"OBJECT_NAME":"STARLINK-5541","OBJECT_ID":"2023-064AD","EPOCH":"2026-03-09T12:31:50.866464","MEAN_MOTION":14.98353783,"ECCENTRICITY":0.00033811,"INCLINATION":69.9994,"RA_OF_ASC_NODE":124.9029,"ARG_OF_PERICENTER":267.8014,"MEAN_ANOMALY":92.2758,"EPHEMERIS_TYPE":0,"CLASSIFICATION_TYPE":"U","NORAD_CAT_ID":56475,"ELEMENT_SET_NO":999,"REV_AT_EPOCH":15571,"BSTAR":0.00020202542,"MEAN_MOTION_DOT":2.32e-5,"MEAN_MOTION_DDOT":0},{"OBJECT_NAME":"TIROS 6","OBJECT_ID":"1962-047A","EPOCH":"2026-03-09T22:32:46.825440","MEAN_MOTION":14.95739722,"ECCENTRICITY":0.00128175,"INCLINATION":58.3026,"RA_OF_ASC_NODE":287.9356,"ARG_OF_PERICENTER":61.4296,"MEAN_ANOMALY":298.8041,"EPHEMERIS_TYPE":0,"CLASSIFICATION_TYPE":"U","NORAD_CAT_ID":397,"ELEMENT_SET_NO":999,"REV_AT_EPOCH":39747,"BSTAR":0.00017529326,"MEAN_MOTION_DOT":1.739e-5,"MEAN_MOTION_DDOT":0}]
